[{"OBJECT_NAME":"STARLINK-31149","OBJECT_ID":"2024-019L","EPOCH":"2026-03-09T12:48:25.428096","MEAN_MOTION":15.27591575,"ECCENTRICITY":6.315e-5,"INCLINATION":42.9972,"RA_OF_ASC_NODE":249.3676,"ARG_OF_PERICENTER":268.5815,"MEAN_ANOMALY":91.4965,"EPHEMERIS_TYPE":0,"CLASSIFICATION_TYPE":"U","NORAD_CAT_ID":58863,"ELEMENT_SET_NO":999,"REV_AT_EPOCH":11906,"BSTAR":-0.00014324186,"MEAN_MOTION_DOT":-4.203e-5,"MEAN_MOTION_DDOT":0},{"OBJECT_NAME":"FLOCK 4G-21","OBJECT_ID":"2025-009AU","EPOCH":"2026-03-09T04:40:37.351200","MEAN_MOTION":15.28381075,"ECCENTRICITY":4.655e-5,"INCLINATION":97.4032,"RA_OF_ASC_NODE":151.1274,"ARG_OF_PERICENTER":329.5782,"MEAN_ANOMALY":30.5431,"EPHEMERIS_TYPE":0,"CLASSIFICATION_TYPE":"U","NORAD_CAT_ID":62651,"ELEMENT_SET_NO":999,"REV_AT_EPOCH":6367,"BSTAR":0.00049618643,"MEAN_MOTION_DOT":0.00013648,"MEAN_MOTION_DDOT":0}]
